ONEWEB-0094             
1 45450U 20020AC  24241.44662089 -.00000004  00000+0 -43636-4 0  9995
2 45450  87.9171 136.8427 0001794  72.0330 288.0997 13.17648831219692
ONEWEB-0087             
1 45451U 20020AD  24241.50570203  .00000474  00000+0  13020-2 0  9990
2 45451  87.8991 151.9867 0001774  66.5956 293.5358 13.11418775216389
ONEWEB-0082             
1 45452U 20020AE  24241.50244276  .00000425  00000+0  11639-2 0  9999
2 45452  87.8995 151.9940 0001825  76.2913 283.8418 13.11418529216470
ONEWEB-0050             
1 45453U 20020AF  24241.39098397  .00010115  00000+0  10334-2 0  9996
2 45453  88.0069   9.8464 0003662 145.1083 215.0386 14.90504422242378
ONEWEB-0034             
1 45454U 20020AG  24241.44819136  .00000418  00000+0  11428-2 0  9995
2 45454  87.8993 152.0241 0001878  74.1561 285.9774 13.11414526216381
ONEWEB-0060             
1 45455U 20020AH  24241.49070915 -.00000120  00000+0 -37395-3 0  9999
2 45455  87.8999 152.0334 0002072  72.3294 287.8060 13.11419378216346
ONEWEB-0086             
1 45456U 20020AJ  24241.47360518 -.00000515  00000+0 -14896-2 0  9997
2 45456  87.8992 152.0194 0001595  63.5750 296.5542 13.11415304216406
ONEWEB-0088             
1 45457U 20020AK  24241.45158173  .00000282  00000+0  75903-3 0  9994
2 45457  87.8988 151.9862 0001901  71.5112 288.6223 13.11413708216330
